MALLIGYONG-1            
1 58400U 23179A   24115.60607302  .00011181  00000+0  48999-3 0  9999
2 58400  97.4109   3.2608 0011347  92.1657 268.0878 15.22111165 23575
